[{"OBJECT_NAME":"UOSAT 2 (UO-11)","OBJECT_ID":"1984-021B","EPOCH":"2026-03-09T22:36:42.882336","MEAN_MOTION":14.90508611,"ECCENTRICITY":0.00084315,"INCLINATION":97.795,"RA_OF_ASC_NODE":35.7082,"ARG_OF_PERICENTER":142.6564,"MEAN_ANOMALY":217.5241,"EPHEMERIS_TYPE":0,"CLASSIFICATION_TYPE":"U","NORAD_CAT_ID":14781,"ELEMENT_SET_NO":999,"REV_AT_EPOCH":24234,"BSTAR":0.00019045532,"MEAN_MOTION_DOT":1.805e-5,"MEAN_MOTION_DDOT":0},{"OBJECT_NAME":"TITAN 4B DEB","OBJECT_ID":"2000-047C","EPOCH":"2026-03-09T02:32:29.436864","MEAN_MOTION":14.9171765,"ECCENTRICITY":0.00575622,"INCLINATION":67.9942,"RA_OF_ASC_NODE":238.0618,"ARG_OF_PERICENTER":121.1285,"MEAN_ANOMALY":239.5519,"EPHEMERIS_TYPE":0,"CLASSIFICATION_TYPE":"U","NORAD_CAT_ID":27469,"ELEMENT_SET_NO":999,"REV_AT_EPOCH":28480,"BSTAR":9.2128473e-5,"MEAN_MOTION_DOT":8.38e-6,"MEAN_MOTION_DDOT":0}]
